[{"OBJECT_NAME":"IRIDIUM 156","OBJECT_ID":"2018-061H","EPOCH":"2026-03-09T13:23:10.368096","MEAN_MOTION":14.34217428,"ECCENTRICITY":0.0001926,"INCLINATION":86.3916,"RA_OF_ASC_NODE":98.4058,"ARG_OF_PERICENTER":95.842,"MEAN_ANOMALY":264.2995,"EPHEMERIS_TYPE":0,"CLASSIFICATION_TYPE":"U","NORAD_CAT_ID":43576,"ELEMENT_SET_NO":999,"REV_AT_EPOCH":39909,"BSTAR":-1.5896e-5,"MEAN_MOTION_DOT":-2.5e-7,"MEAN_MOTION_DDOT":0},{"OBJECT_NAME":"COSMOS 1867 COOLANT","OBJECT_ID":"1987-060E","EPOCH":"2026-03-09T02:27:15.647616","MEAN_MOTION":14.34070357,"ECCENTRICITY":0.00153199,"INCLINATION":65.0088,"RA_OF_ASC_NODE":287.3459,"ARG_OF_PERICENTER":283.0627,"MEAN_ANOMALY":76.8748,"EPHEMERIS_TYPE":0,"CLASSIFICATION_TYPE":"U","NORAD_CAT_ID":39637,"ELEMENT_SET_NO":999,"REV_AT_EPOCH":62334,"BSTAR":0.00015912878,"MEAN_MOTION_DOT":3.45e-6,"MEAN_MOTION_DDOT":0}]
